start=new Date('2023-06-26T00:00:00.000Z').valueOf();
sats=[{"RA_OF_ASC_NODE":"116.9579","MEAN_MOTION_DDOT":"0.0000000000000","ELEMENT_SET_NO":"999","MEAN_ANOMALY":"271.3460","LAUNCH_DATE":"2022-03-03","PERIAPSIS":"539.032","DECAY_DATE":null,"ARG_OF_PERICENTER":"88.7650","TIME_SYSTEM":"UTC","SEMIMAJOR_AXIS":"6917.877","FILE":"3942197","OBJECT_ID":"2022-022AM","TLE_LINE1":"1 51887U 22022AM  23176.12577617  .00000600  00000-0  55745-4 0  9998","NORAD_CAT_ID":"51887","GP_ID":"234539111","MEAN_MOTION_DOT":"0.00000600","REF_FRAME":"TEME","PERIOD":"95.437","CENTER_NAME":"EARTH","MEAN_MOTION":"15.08840967","EPHEMERIS_TYPE":"0","COUNTRY_CODE":"US","ECCENTRICITY":"0.00010270","SITE":"AFETR","EPOCH":"2023-06-25T03:01:07.061088","MEAN_ELEMENT_THEORY":"SGP4","APOAPSIS":"540.453","OBJECT_TYPE":"PAYLOAD","TLE_LINE2":"2 51887  53.2157 116.9579 0001027  88.7650 271.3460 15.08840967 74008","INCLINATION":"53.2157","BSTAR":"0.00005574500000","OBJECT_NAME":"STARLINK-3551","REV_AT_EPOCH":"7400","RCS_SIZE":"LARGE","CLASSIFICATION_TYPE":"U"},{"EPOCH":"2023-06-25T03:11:42.996192","MEAN_ELEMENT_THEORY":"SGP4","OBJECT_TYPE":"PAYLOAD","TLE_LINE2":"2 51888  53.2152 116.9244 0001102  88.9210 271.1909 15.08843040 74013","APOAPSIS":"540.498","CENTER_NAME":"EARTH","REF_FRAME":"TEME","MEAN_MOTION_DOT":"-0.00001602","PERIOD":"95.437","COUNTRY_CODE":"US","SITE":"AFETR","ECCENTRICITY":"0.00011020","MEAN_MOTION":"15.08843040","EPHEMERIS_TYPE":"0","RCS_SIZE":"LARGE","CLASSIFICATION_TYPE":"U","INCLINATION":"53.2152","BSTAR":"-0.00008258000000","OBJECT_NAME":"STARLINK-3536","REV_AT_EPOCH":"7401","MEAN_ANOMALY":"271.1909","PERIAPSIS":"538.974","DECAY_DATE":null,"ARG_OF_PERICENTER":"88.9210","LAUNCH_DATE":"2022-03-03","RA_OF_ASC_NODE":"116.9244","ELEMENT_SET_NO":"999","MEAN_MOTION_DDOT":"0.0000000000000","TLE_LINE1":"1 51888U 22022AN  23176.13313653 -.00001602  00000-0 -82580-4 0  9990","GP_ID":"234539104","NORAD_CAT_ID":"51888","SEMIMAJOR_AXIS":"6917.871","TIME_SYSTEM":"UTC","OBJECT_ID":"2022-022AN","FILE":"3942197"},{"ELEMENT_SET_NO":"999","MEAN_MOTION_DDOT":"0.0000000000000","RA_OF_ASC_NODE":"117.0049","ARG_OF_PERICENTER":"94.5930","PERIAPSIS":"538.905","DECAY_DATE":null,"LAUNCH_DATE":"2022-03-03","MEAN_ANOMALY":"265.5199","OBJECT_ID":"2022-022AP","FILE":"3942197","SEMIMAJOR_AXIS":"6917.869","TIME_SYSTEM":"UTC","GP_ID":"234538628","NORAD_CAT_ID":"51889","TLE_LINE1":"1 51889U 22022AP  23176.11473155  .00000211  00000-0  31370-4 0  9997","SITE":"AFETR","ECCENTRICITY":"0.00011980","COUNTRY_CODE":"US","EPHEMERIS_TYPE":"0","MEAN_MOTION":"15.08843872","CENTER_NAME":"EARTH","PERIOD":"95.437","MEAN_MOTION_DOT":"0.00000211","REF_FRAME":"TEME","TLE_LINE2":"2 51889  53.2160 117.0049 0001198  94.5930 265.5199 15.08843872 74005","OBJECT_TYPE":"PAYLOAD","APOAPSIS":"540.562","MEAN_ELEMENT_THEORY":"SGP4","EPOCH":"2023-06-25T02:45:12.805920","REV_AT_EPOCH":"7400","OBJECT_NAME":"STARLINK-3547","BSTAR":"0.00003137000000","INCLINATION":"53.2160","CLASSIFICATION_TYPE":"U","RCS_SIZE":"LARGE"},{"SEMIMAJOR_AXIS":"6915.388","TIME_SYSTEM":"UTC","OBJECT_ID":"2022-022AQ","FILE":"3942738","TLE_LINE1":"1 51890U 22022AQ  23176.53061665  .00000460  00000-0  46104-4 0  9991","GP_ID":"234551882","NORAD_CAT_ID":"51890","RA_OF_ASC_NODE":"114.5749","ELEMENT_SET_NO":"999","MEAN_MOTION_DDOT":"0.0000000000000","MEAN_ANOMALY":"245.3050","DECAY_DATE":null,"PERIAPSIS":"536.634","ARG_OF_PERICENTER":"114.8036","LAUNCH_DATE":"2022-03-03","BSTAR":"0.00004610400000","INCLINATION":"53.2171","OBJECT_NAME":"STARLINK-3519","REV_AT_EPOCH":"7407","RCS_SIZE":"LARGE","CLASSIFICATION_TYPE":"U","CENTER_NAME":"EARTH","REF_FRAME":"TEME","MEAN_MOTION_DOT":"0.00000460","PERIOD":"95.386","COUNTRY_CODE":"US","ECCENTRICITY":"0.00008950","SITE":"AFETR","MEAN_MOTION":"15.09655845","EPHEMERIS_TYPE":"0","EPOCH":"2023-06-25T12:44:05.278560","MEAN_ELEMENT_THEORY":"SGP4","TLE_LINE2":"2 51890  53.2171 114.5749 0000895 114.8036 245.3050 15.09655845 74075","OBJECT_TYPE":"PAYLOAD","APOAPSIS":"537.872"},{"MEAN_ELEMENT_THEORY":"SGP4","EPOCH":"2023-06-25T05:50:41.336736","APOAPSIS":"540.622","OBJECT_TYPE":"PAYLOAD","TLE_LINE2":"2 51891  53.2168 116.4271 0001288  87.9363 272.1777 15.08844732 74071","PERIOD":"95.437","MEAN_MOTION_DOT":"0.00000537","REF_FRAME":"TEME","CENTER_NAME":"EARTH","EPHEMERIS_TYPE":"0","MEAN_MOTION":"15.08844732","SITE":"AFETR","ECCENTRICITY":"0.00012880","COUNTRY_CODE":"US","RCS_SIZE":"LARGE","CLASSIFICATION_TYPE":"U","INCLINATION":"53.2168","BSTAR":"0.00005179800000","REV_AT_EPOCH":"7407","OBJECT_NAME":"STARLINK-3549","MEAN_ANOMALY":"272.1777","LAUNCH_DATE":"2022-03-03","ARG_OF_PERICENTER":"87.9363","DECAY_DATE":null,"PERIAPSIS":"538.840","RA_OF_ASC_NODE":"116.4271","MEAN_MOTION_DDOT":"0.0000000000000","ELEMENT_SET_NO":"999","TLE_LINE1":"1 51891U 22022AR  23176.24353399  .00000537  00000-0  51798-4 0  9998","NORAD_CAT_ID":"51891","GP_ID":"234552087","TIME_SYSTEM":"UTC","SEMIMAJOR_AXIS":"6917.866","FILE":"3942739","OBJECT_ID":"2022-022AR"},{"ECCENTRICITY":"0.00012620","SITE":"AFETR","COUNTRY_CODE":"US","EPHEMERIS_TYPE":"0","MEAN_MOTION":"15.08837865","CENTER_NAME":"EARTH","PERIOD":"95.438","MEAN_MOTION_DOT":"-0.00000854","REF_FRAME":"TEME","OBJECT_TYPE":"PAYLOAD","TLE_LINE2":"2 51892  53.2161 117.2855 0001262  96.5783 263.5353 15.08837865 73999","APOAPSIS":"540.625","MEAN_ELEMENT_THEORY":"SGP4","EPOCH":"2023-06-25T01:15:08.205120","REV_AT_EPOCH":"7399","OBJECT_NAME":"STARLINK-3587","BSTAR":"-0.00003557500000","INCLINATION":"53.2161","CLASSIFICATION_TYPE":"U","RCS_SIZE":"LARGE","ELEMENT_SET_NO":"999","MEAN_MOTION_DDOT":"0.0000000000000","RA_OF_ASC_NODE":"117.2855","ARG_OF_PERICENTER":"96.5783","PERIAPSIS":"538.879","DECAY_DATE":null,"LAUNCH_DATE":"2022-03-03","MEAN_ANOMALY":"263.5353","OBJECT_ID":"2022-022AS","FILE":"3942212","SEMIMAJOR_AXIS":"6917.887","TIME_SYSTEM":"UTC","NORAD_CAT_ID":"51892","GP_ID":"234538646","TLE_LINE1":"1 51892U 22022AS  23176.05217830 -.00000854  00000-0 -35575-4 0  9996"},{"SEMIMAJOR_AXIS":"6917.863","TIME_SYSTEM":"UTC","OBJECT_ID":"2022-022AT","FILE":"3942739","TLE_LINE1":"1 51893U 22022AT  23176.56737525  .00001581  00000-0  11735-3 0  9998","GP_ID":"234552095","NORAD_CAT_ID":"51893","RA_OF_ASC_NODE":"114.9741","ELEMENT_SET_NO":"999","MEAN_MOTION_DDOT":"0.0000000000000","MEAN_ANOMALY":"263.3360","PERIAPSIS":"538.898","DECAY_DATE":null,"ARG_OF_PERICENTER":"96.7769","LAUNCH_DATE":"2022-03-03","INCLINATION":"53.2161","BSTAR":"0.00011735000000","OBJECT_NAME":"STARLINK-3579","REV_AT_EPOCH":"7413","RCS_SIZE":"LARGE","CLASSIFICATION_TYPE":"U","CENTER_NAME":"EARTH","REF_FRAME":"TEME","MEAN_MOTION_DOT":"0.00001581","PERIOD":"95.437","COUNTRY_CODE":"US","SITE":"AFETR","ECCENTRICITY":"0.00011990","MEAN_MOTION":"15.08845779","EPHEMERIS_TYPE":"0","EPOCH":"2023-06-25T13:37:01.221600","MEAN_ELEMENT_THEORY":"SGP4","TLE_LINE2":"2 51893  53.2161 114.9741 0001199  96.7769 263.3360 15.08845779 74139","OBJECT_TYPE":"PAYLOAD","APOAPSIS":"540.557"},{"FILE":"3942212","OBJECT_ID":"2022-022AU","TIME_SYSTEM":"UTC","SEMIMAJOR_AXIS":"6917.885","NORAD_CAT_ID":"51894","GP_ID":"234539116","TLE_LINE1":"1 51894U 22022AU  23176.10737450  .00000777  00000-0  66917-4 0  9995","MEAN_MOTION_DDOT":"0.0000000000000","ELEMENT_SET_NO":"999","RA_OF_ASC_NODE":"117.0410","LAUNCH_DATE":"2022-03-03","DECAY_DATE":null,"PERIAPSIS":"538.986","ARG_OF_PERICENTER":"93.4601","MEAN_ANOMALY":"266.6517","OBJECT_NAME":"STARLINK-3595","REV_AT_EPOCH":"7406","INCLINATION":"53.2160","BSTAR":"0.00006691700000","CLASSIFICATION_TYPE":"U","RCS_SIZE":"LARGE","MEAN_MOTION":"15.08838434","EPHEMERIS_TYPE":"0","COUNTRY_CODE":"US","ECCENTRICITY":"0.00011040","SITE":"AFETR","REF_FRAME":"TEME","MEAN_MOTION_DOT":"0.00000777","PERIOD":"95.438","CENTER_NAME":"EARTH","APOAPSIS":"540.514","TLE_LINE2":"2 51894  53.2160 117.0410 0001104  93.4601 266.6517 15.08838434 74063","OBJECT_TYPE":"PAYLOAD","EPOCH":"2023-06-25T02:34:37.156800","MEAN_ELEMENT_THEORY":"SGP4"},{"TLE_LINE1":"1 51895U 22022AV  23176.10001261 -.00000002  00000-0  17985-4 0  9993","GP_ID":"234539129","NORAD_CAT_ID":"51895","TIME_SYSTEM":"UTC","SEMIMAJOR_AXIS":"6917.858","FILE":"3942198","OBJECT_ID":"2022-022AV","MEAN_ANOMALY":"267.0161","LAUNCH_DATE":"2022-03-03","PERIAPSIS":"538.934","DECAY_DATE":null,"ARG_OF_PERICENTER":"93.0962","RA_OF_ASC_NODE":"117.0704","MEAN_MOTION_DDOT":"0.0000000000000","ELEMENT_SET_NO":"999","RCS_SIZE":"LARGE","CLASSIFICATION_TYPE":"U","INCLINATION":"53.2169","BSTAR":"0.00001798500000","OBJECT_NAME":"STARLINK-3594","REV_AT_EPOCH":"7400","EPOCH":"2023-06-25T02:24:01.089504","MEAN_ELEMENT_THEORY":"SGP4","APOAPSIS":"540.512","TLE_LINE2":"2 51895  53.2169 117.0704 0001140  93.0962 267.0161 15.08847315 74007","OBJECT_TYPE":"PAYLOAD","MEAN_MOTION_DOT":"-0.00000002","REF_FRAME":"TEME","PERIOD":"95.437","CENTER_NAME":"EARTH","MEAN_MOTION":"15.08847315","EPHEMERIS_TYPE":"0","COUNTRY_CODE":"US","SITE":"AFETR","ECCENTRICITY":"0.00011400"},{"MEAN_ANOMALY":"270.4795","DECAY_DATE":null,"PERIAPSIS":"538.834","ARG_OF_PERICENTER":"89.6344","LAUNCH_DATE":"2022-03-03","RA_OF_ASC_NODE":"116.4722","ELEMENT_SET_NO":"999","MEAN_MOTION_DDOT":"0.0000000000000","TLE_LINE1":"1 51896U 22022AW  23176.23344998  .00000021  00000-0  19385-4 0  9991","GP_ID":"234545468","NORAD_CAT_ID":"51896","SEMIMAJOR_AXIS":"6917.856","TIME_SYSTEM":"UTC","OBJECT_ID":"2022-022AW","FILE":"3942468","EPOCH":"2023-06-25T05:36:10.078272","MEAN_ELEMENT_THEORY":"SGP4","OBJECT_TYPE":"PAYLOAD","TLE_LINE2":"2 51896  53.2166 116.4722 0001283  89.6344 270.4795 15.08847922 74073","APOAPSIS":"540.609","CENTER_NAME":"EARTH","MEAN_MOTION_DOT":"0.00000021","REF_FRAME":"TEME","PERIOD":"95.437","COUNTRY_CODE":"US","ECCENTRICITY":"0.00012830","SITE":"AFETR","MEAN_MOTION":"15.08847922","EPHEMERIS_TYPE":"0","RCS_SIZE":"LARGE","CLASSIFICATION_TYPE":"U","BSTAR":"0.00001938500000","INCLINATION":"53.2166","OBJECT_NAME":"STARLINK-3593","REV_AT_EPOCH":"7407"}];
